{
  "type": "FeatureCollection",
  "features": [
    {
      "type": "Feature",
      "properties": {
        "name": "Kuta"
      },
      "geometry": {
        "type": "Polygon",
        "coordinates": [
          [
            [
              115.1613,
              -8.69734
            ],
            [
              115.166326,
              -8.709786
            ],
            [
              115.169455,
              -8.722813
            ],
            [
              115.164311,
              -8.730256
            ],
            [
              115.159856,
              -8.741787
            ],
            [
              115.153121,
              -8.742364
            ],
            [
              115.153068,
              -8.750226
            ],
            [
              115.184356,
              -8.74923
            ],
            [
              115.186941,
              -8.721688
            ],
            [
              115.185069,
              -8.700402
            ],
            [
              115.177746,
              -8.69934
            ],
            [
              115.172576,
              -8.69734
            ],
            [
              115.1613,
              -8.69734
            ]
          ]
        ]
      }
    },
    {
      "type": "Feature",
      "properties": {
        "name": "seminyak"
      },
      "geometry": {
        "type": "Polygon",
        "coordinates": [
          [
            [
              115.1613,
              -8.69734
            ],
            [
              115.172624,
              -8.69734
            ],
            [
              115.177746,
              -8.69934
            ],
            [
              115.185069,
              -8.700402
            ],
            [
              115.157962,
              -8.656262
            ],
            [
              115.143965,
              -8.671929
            ],
            [
              115.1613,
              -8.69734
            ]
          ]
        ]
      }
    },
    {
      "type": "Feature",
      "properties": {
        "name": "canggu"
      },
      "geometry": {
        "type": "Polygon",
        "coordinates": [
          [
            [
              115.119519,
              -8.650464
            ],
            [
              115.143965,
              -8.671929
            ],
            [
              115.17262,
              -8.639856
            ],
            [
              115.147541,
              -8.611832
            ],
            [
              115.119519,
              -8.650464
            ]
          ]
        ]
      }
    },
    {
      "type": "Feature",
      "properties": {
        "name": "seseh"
      },
      "geometry": {
        "type": "Polygon",
        "coordinates": [
          [
            [
              115.097983,
              -8.637234
            ],
            [
              115.10301,
              -8.642676
            ],
            [
              115.119256,
              -8.650454
            ],
            [
              115.147541,
              -8.611832
            ],
            [
              115.128409,
              -8.598764
            ],
            [
              115.097983,
              -8.637234
            ]
          ]
        ]
      }
    },
    {
      "type": "Feature",
      "properties": {
        "name": "sanur"
      },
      "geometry": {
        "type": "Polygon",
        "coordinates": [
          [
            [
              115.24809,
              -8.713667
            ],
            [
              115.255029,
              -8.711883
            ],
            [
              115.260829,
              -8.7088
            ],
            [
              115.264128,
              -8.705138
            ],
            [
              115.266818,
              -8.693297
            ],
            [
              115.264453,
              -8.675724
            ],
            [
              115.260606,
              -8.667813
            ],
            [
              115.250962,
              -8.668264
            ],
            [
              115.24809,
              -8.713667
            ]
          ]
        ]
      }
    },
    {
      "type": "Feature",
      "properties": {
        "name": "jimburan"
      },
      "geometry": {
        "type": "Polygon",
        "coordinates": [
          [
            [
              115.119138,
              -8.792293
            ],
            [
              115.155683,
              -8.815897
            ],
            [
              115.187769,
              -8.8055
            ],
            [
              115.19777,
              -8.780998
            ],
            [
              115.180789,
              -8.759583
            ],
            [
              115.184356,
              -8.74923
            ],
            [
              115.15971,
              -8.750015
            ],
            [
              115.168289,
              -8.75773
            ],
            [
              115.168914,
              -8.769982
            ],
            [
              115.161517,
              -8.782645
            ],
            [
              115.15273,
              -8.779464
            ],
            [
              115.143703,
              -8.780277
            ],
            [
              115.119138,
              -8.792293
            ]
          ]
        ]
      }
    },
    {
      "type": "Feature",
      "properties": {
        "name": "uluwatu"
      },
      "geometry": {
        "type": "Polygon",
        "coordinates": [
          [
            [
              115.083926,
              -8.825137
            ],
            [
              115.088905,
              -8.837437
            ],
            [
              115.111904,
              -8.845754
            ],
            [
              115.146165,
              -8.848566
            ],
            [
              115.155683,
              -8.815897
            ],
            [
              115.119138,
              -8.792293
            ],
            [
              115.115579,
              -8.80405
            ],
            [
              115.10242,
              -8.811313
            ],
            [
              115.088312,
              -8.814945
            ],
            [
              115.083926,
              -8.825137
            ]
          ]
        ]
      }
    },
    {
      "type": "Feature",
      "properties": {
        "name": "nusa_dua"
      },
      "geometry": {
        "type": "Polygon",
        "coordinates": [
          [
            [
              115.210076,
              -8.835573
            ],
            [
              115.217919,
              -8.832733
            ],
            [
              115.237641,
              -8.802317
            ],
            [
              115.228497,
              -8.78619
            ],
            [
              115.222338,
              -8.753396
            ],
            [
              115.216275,
              -8.751825
            ],
            [
              115.215157,
              -8.766194
            ],
            [
              115.217158,
              -8.786925
            ],
            [
              115.19777,
              -8.780998
            ],
            [
              115.187769,
              -8.8055
            ],
            [
              115.210076,
              -8.835573
            ]
          ]
        ]
      }
    },
    {
      "type": "Feature",
      "properties": {
        "name": "Ungasan"
      },
      "geometry": {
        "type": "Polygon",
        "coordinates": [
          [
            [
              115.146165,
              -8.848566
            ],
            [
              115.161832,
              -8.848984
            ],
            [
              115.182309,
              -8.846826
            ],
            [
              115.210076,
              -8.835573
            ],
            [
              115.187769,
              -8.8055
            ],
            [
              115.155683,
              -8.815897
            ],
            [
              115.146165,
              -8.848566
            ]
          ]
        ]
      }
    },
    {
      "type": "Feature",
      "properties": {
        "name": "denpasar"
      },
      "geometry": {
        "type": "Polygon",
        "coordinates": [
          [
            [
              115.184942,
              -8.742985
            ],
            [
              115.208858,
              -8.745516
            ],
            [
              115.229551,
              -8.753399
            ],
            [
              115.251627,
              -8.73016
            ],
            [
              115.24809,
              -8.713659
            ],
            [
              115.250962,
              -8.668264
            ],
            [
              115.260595,
              -8.667813
            ],
            [
              115.268133,
              -8.655407
            ],
            [
              115.253888,
              -8.592842
            ],
            [
              115.19693,
              -8.595488
            ],
            [
              115.17262,
              -8.639856
            ],
            [
              115.190703,
              -8.670355
            ],
            [
              115.175099,
              -8.684199
            ],
            [
              115.185069,
              -8.700402
            ],
            [
              115.186935,
              -8.721752
            ],
            [
              115.184942,
              -8.742985
            ]
          ]
        ]
      }
    },
    {
      "type": "Feature",
      "properties": {
        "name": "ubud"
      },
      "geometry": {
        "type": "Polygon",
        "coordinates": [
          [
            [
              115.345268,
              -8.421265
            ],
            [
              115.214478,
              -8.405781
            ],
            [
              115.214058,
              -8.405553
            ],
            [
              115.189168,
              -8.573793
            ],
            [
              115.256866,
              -8.581058
            ],
            [
              115.311969,
              -8.572236
            ],
            [
              115.345268,
              -8.421265
            ]
          ]
        ]
      }
    },
    {
      "type": "Feature",
      "properties": {
        "name": "kintamani"
      },
      "geometry": {
        "type": "Polygon",
        "coordinates": [
          [
            [
              115.428348,
              -8.276518
            ],
            [
              115.479771,
              -8.203835
            ],
            [
              115.37924,
              -8.147918
            ],
            [
              115.292082,
              -8.129886
            ],
            [
              115.246908,
              -8.222802
            ],
            [
              115.25478,
              -8.290421
            ],
            [
              115.377319,
              -8.344426
            ],
            [
              115.428348,
              -8.276518
            ]
          ]
        ]
      }
    },
    {
      "type": "Feature",
      "properties": {
        "name": "lovina"
      },
      "geometry": {
        "type": "Polygon",
        "coordinates": [
          [
            [
              115.009238,
              -8.165926
            ],
            [
              115.003464,
              -8.174555
            ],
            [
              115.016956,
              -8.194474
            ],
            [
              115.063454,
              -8.167764
            ],
            [
              115.046757,
              -8.144897
            ],
            [
              115.027145,
              -8.154949
            ],
            [
              115.020646,
              -8.164127
            ],
            [
              115.009238,
              -8.165926
            ]
          ]
        ]
      }
    },
    {
      "type": "Feature",
      "properties": {
        "name": "amed"
      },
      "geometry": {
        "type": "Polygon",
        "coordinates": [
          [
            [
              115.710917,
              -8.388153
            ],
            [
              115.710146,
              -8.376977
            ],
            [
              115.697155,
              -8.358449
            ],
            [
              115.662568,
              -8.337249
            ],
            [
              115.643334,
              -8.333576
            ],
            [
              115.629351,
              -8.323452
            ],
            [
              115.61771,
              -8.299245
            ],
            [
              115.586907,
              -8.339565
            ],
            [
              115.699869,
              -8.413278
            ],
            [
              115.711012,
              -8.39966
            ],
            [
              115.710917,
              -8.388153
            ]
          ]
        ]
      }
    },
    {
      "type": "Feature",
      "properties": {
        "name": "nusa_penida"
      },
      "geometry": {
        "type": "Polygon",
        "coordinates": [
          [
            [
              115.589884,
              -8.819012
            ],
            [
              115.629649,
              -8.767211
            ],
            [
              115.570002,
              -8.674565
            ],
            [
              115.49383,
              -8.671246
            ],
            [
              115.44477,
              -8.726378
            ],
            [
              115.452,
              -8.748071
            ],
            [
              115.530496,
              -8.798599
            ],
            [
              115.589884,
              -8.819012
            ]
          ]
        ]
      }
    },
    {
      "type": "Feature",
      "properties": {
        "name": "ceningan"
      },
      "geometry": {
        "type": "Polygon",
        "coordinates": [
          [
            [
              115.441962,
              -8.712641
            ],
            [
              115.460298,
              -8.698466
            ],
            [
              115.465717,
              -8.687374
            ],
            [
              115.459258,
              -8.688348
            ],
            [
              115.440881,
              -8.700999
            ],
            [
              115.437837,
              -8.704298
            ],
            [
              115.436432,
              -8.707496
            ],
            [
              115.441962,
              -8.712641
            ]
          ]
        ]
      }
    },
    {
      "type": "Feature",
      "properties": {
        "name": "lembongan"
      },
      "geometry": {
        "type": "Polygon",
        "coordinates": [
          [
            [
              115.450391,
              -8.693272
            ],
            [
              115.473115,
              -8.672714
            ],
            [
              115.46901,
              -8.666059
            ],
            [
              115.450948,
              -8.663029
            ],
            [
              115.44739,
              -8.666925
            ],
            [
              115.445146,
              -8.678883
            ],
            [
              115.426701,
              -8.682995
            ],
            [
              115.430094,
              -8.692138
            ],
            [
              115.437867,
              -8.694736
            ],
            [
              115.450391,
              -8.693272
            ]
          ]
        ]
      }
    },
    {
      "type": "Feature",
      "properties": {
        "name": "gili_trawangan"
      },
      "geometry": {
        "type": "Polygon",
        "coordinates": [
          [
            [
              116.034396,
              -8.361679
            ],
            [
              116.040754,
              -8.360668
            ],
            [
              116.044501,
              -8.351457
            ],
            [
              116.0417,
              -8.340186
            ],
            [
              116.039005,
              -8.338551
            ],
            [
              116.031739,
              -8.33975
            ],
            [
              116.027765,
              -8.344243
            ],
            [
              116.028522,
              -8.353342
            ],
            [
              116.032004,
              -8.359446
            ],
            [
              116.034396,
              -8.361679
            ]
          ]
        ]
      }
    },
    {
      "type": "Feature",
      "properties": {
        "name": "gili_meno"
      },
      "geometry": {
        "type": "Polygon",
        "coordinates": [
          [
            [
              116.058386,
              -8.359177
            ],
            [
              116.06157,
              -8.357653
            ],
            [
              116.062187,
              -8.351453
            ],
            [
              116.061238,
              -8.344919
            ],
            [
              116.058927,
              -8.341895
            ],
            [
              116.055203,
              -8.341794
            ],
            [
              116.051634,
              -8.343522
            ],
            [
              116.051248,
              -8.349137
            ],
            [
              116.054155,
              -8.358219
            ],
            [
              116.058386,
              -8.359177
            ]
          ]
        ]
      }
    },
    {
      "type": "Feature",
      "properties": {
        "name": "gili_air"
      },
      "geometry": {
        "type": "Polygon",
        "coordinates": [
          [
            [
              116.087732,
              -8.364803
            ],
            [
              116.087584,
              -8.355531
            ],
            [
              116.085772,
              -8.349749
            ],
            [
              116.079489,
              -8.351773
            ],
            [
              116.074843,
              -8.355792
            ],
            [
              116.076041,
              -8.36302
            ],
            [
              116.08057,
              -8.36516
            ],
            [
              116.087732,
              -8.364803
            ]
          ]
        ]
      }
    },
    {
      "type": "Feature",
      "properties": {
        "name": "kerobokan"
      },
      "geometry": {
        "type": "Polygon",
        "coordinates": [
          [
            [
              115.175099,
              -8.684199
            ],
            [
              115.190703,
              -8.670355
            ],
            [
              115.17262,
              -8.639856
            ],
            [
              115.157962,
              -8.656262
            ],
            [
              115.175099,
              -8.684199
            ]
          ]
        ]
      }
    }
  ]
}